0 OPS 4682 DEB
1 38365U 65027BS  13285.82536035  .00000765  00000-0  26114-2 0   890
2 38365 090.2566 237.9386 0022448 330.9442 029.0428 12.97381823515772
0 OPS 4682 DEB
1 38365U 65027BS  13290.14416180  .00000765  00000-0  26114-2 0   901
2 38365 090.2549 238.0360 0023885 318.3803 041.7296 12.97400384516346
0 OPS 4682 DEB
1 38365U 65027BS  13290.14416344  .00000639  00000-0  21759-2 0   914
2 38365 090.2581 238.0404 0022036 319.5322 040.4159 12.97390988516349
0 OPS 4682 DEB
1 38365U 65027BS  13292.14931566  .00000126  00000-0  40994-3 0   929
2 38365 090.2584 238.0879 0021906 313.7319 046.1987 12.97397704516609
0 OPS 4682 DEB
1 38365U 65027BS  13295.15702824 -.00000257  00000-0 -91031-3 0   932
2 38365 090.2609 238.1605 0021636 306.2566 053.6555 12.97401746516994
